{"type": "FeatureCollection", "features": [ {"type": "Feature", "properties": {"norad_id": 40118, "name": "GAOFEN-2", "group": "resource", "lat": 53.155531566869776, "lon": -117.57602614585558, "alt_km": 617.0377050112702, "timestamp": "2025-12-18T08:58:43.048753+00:00", "meta": {"OBJECT_NAME": "GAOFEN-2", "OBJECT_ID": "2014-049A", "EPOCH": "2025-12-17T22:40:49.943136", "MEAN_MOTION": 14.80619653, "ECCENTRICITY": 0.00087188, "INCLINATION": 98.0385, "RA_OF_ASC_NODE": 51.1229, "ARG_OF_PERICENTER": 98.512, "MEAN_ANOMALY": 261.708, "EPHEMERIS_TYPE": 0, "CLASSIFICATION_TYPE": "U", "NORAD_CAT_ID": 40118, "ELEMENT_SET_NO": 999, "REV_AT_EPOCH": 61241, "BSTAR": 0.00013091409, "MEAN_MOTION_DOT": 9.52e-06, "MEAN_MOTION_DDOT": 0}, "tle": {"line1": "1 40118U 14049A   25351.94502249  .00000952  00000+0  13091-3 0  9995", "line2": "2 40118  98.0385  51.1229 0008718  98.5120 261.7080 14.80619653612419"}}, "geometry": {"type": "Point", "coordinates": [-117.57602614585558, 53.155531566869776]}}, {"type": "Feature", "properties": {"norad_id": 40143, "name": "YAOGAN-21", "group": "resource", "lat": -61.02274500433377, "lon": -157.7064086254173, "alt_km": 506.78514922644536, "timestamp": "2025-12-18T08:58:43.048763+00:00", "meta": {"OBJECT_NAME": "YAOGAN-21", "OBJECT_ID": "2014-053A", "EPOCH": "2025-12-17T22:27:50.162400", "MEAN_MOTION": 15.23729145, "ECCENTRICITY": 0.00092713, "INCLINATION": 97.1752, "RA_OF_ASC_NODE": 35.0234, "ARG_OF_PERICENTER": 24.9165, "MEAN_ANOMALY": 335.2519, "EPHEMERIS_TYPE": 0, "CLASSIFICATION_TYPE": "U", "NORAD_CAT_ID": 40143, "ELEMENT_SET_NO": 999, "REV_AT_EPOCH": 62733, "BSTAR": 0.00017984173, "MEAN_MOTION_DOT": 4.258e-05, "MEAN_MOTION_DDOT": 0}, "tle": {"line1": "1 40143U 14053A   25351.93599725  .00004258  00000+0  17984-3 0  9990", "line2": "2 40143  97.1752  35.0234 0009271  24.9165 335.2519 15.23729145627336"}}, "geometry": {"type": "Point", "coordinates": [-157.7064086254173, -61.02274500433377]}}, {"type": "Feature", "properties": {"norad_id": 40275, "name": "YAOGAN-22", "group": "resource", "lat": -1.3107785743736127, "lon": -44.37620692132457, "alt_km": 1202.0324058545048, "timestamp": "2025-12-18T08:58:43.048773+00:00", "meta": {"OBJECT_NAME": "YAOGAN-22", "OBJECT_ID": "2014-063A", "EPOCH": "2025-12-17T10:09:25.054560", "MEAN_MOTION": 13.15522862, "ECCENTRICITY": 0.00059894, "INCLINATION": 100.7424, "RA_OF_ASC_NODE": 134.9088, "ARG_OF_PERICENTER": 236.7844, "MEAN_ANOMALY": 123.2694, "EPHEMERIS_TYPE": 0, "CLASSIFICATION_TYPE": "U", "NORAD_CAT_ID": 40275, "ELEMENT_SET_NO": 999, "REV_AT_EPOCH": 53591, "BSTAR": 5.1063601e-05, "MEAN_MOTION_DOT": -2.7e-07, "MEAN_MOTION_DDOT": 0}, "tle": {"line1": "1 40275U 14063A   25351.42320665 -.00000027  00000+0  51064-4 0  9995", "line2": "2 40275 100.7424 134.9088 0005989 236.7844 123.2694 13.15522862535911"}}, "geometry": {"type": "Point", "coordinates": [-44.37620692132457, -1.3107785743736127]}}, {"type": "Feature", "properties": {"norad_id": 40298, "name": "ASNARO", "group": "resource", "lat": -25.678242537301532, "lon": -115.38265742918972, "alt_km": 513.3878031449676, "timestamp": "2025-12-18T08:58:43.048783+00:00", "meta": {"OBJECT_NAME": "ASNARO", "OBJECT_ID": "2014-070A", "EPOCH": "2025-12-17T22:35:38.757984", "MEAN_MOTION": 15.19601332, "ECCENTRICITY": 0.00056497, "INCLINATION": 97.3652, "RA_OF_ASC_NODE": 67.7608, "ARG_OF_PERICENTER": 107.9549, "MEAN_ANOMALY": 252.2302, "EPHEMERIS_TYPE": 0, "CLASSIFICATION_TYPE": "U", "NORAD_CAT_ID": 40298, "ELEMENT_SET_NO": 999, "REV_AT_EPOCH": 61648, "BSTAR": 0.00036642457, "MEAN_MOTION_DOT": 7.74e-05, "MEAN_MOTION_DDOT": 0}, "tle": {"line1": "1 40298U 14070A   25351.94142081  .00007740  00000+0  36642-3 0  9991", "line2": "2 40298  97.3652  67.7608 0005649 107.9549 252.2302 15.19601332616482"}}, "geometry": {"type": "Point", "coordinates": [-115.38265742918972, -25.678242537301532]}}, {"type": "Feature", "properties": {"norad_id": 40310, "name": "YAOGAN-24", "group": "resource", "lat": 19.48015620374203, "lon": 120.60126265298132, "alt_km": 643.5522083408969, "timestamp": "2025-12-18T08:58:43.048793+00:00", "meta": {"OBJECT_NAME": "YAOGAN-24", "OBJECT_ID": "2014-072A", "EPOCH": "2025-12-17T23:07:43.941792", "MEAN_MOTION": 14.76188157, "ECCENTRICITY": 0.00149466, "INCLINATION": 98.1215, "RA_OF_ASC_NODE": 123.0842, "ARG_OF_PERICENTER": 122.2125, "MEAN_ANOMALY": 238.0536, "EPHEMERIS_TYPE": 0, "CLASSIFICATION_TYPE": "U", "NORAD_CAT_ID": 40310, "ELEMENT_SET_NO": 999, "REV_AT_EPOCH": 59698, "BSTAR": 0.00010940793, "MEAN_MOTION_DOT": 7.05e-06, "MEAN_MOTION_DDOT": 0}, "tle": {"line1": "1 40310U 14072A   25351.96370303  .00000705  00000+0  10941-3 0  9998", "line2": "2 40310  98.1215 123.0842 0014946 122.2125 238.0536 14.76188157596987"}}, "geometry": {"type": "Point", "coordinates": [120.60126265298132, 19.48015620374203]}}, {"type": "Feature", "properties": {"norad_id": 40336, "name": "CBERS 4", "group": "resource", "lat": 16.55606465588771, "lon": 47.701919475940485, "alt_km": 773.8769790227161, "timestamp": "2025-12-18T08:58:43.048803+00:00", "meta": {"OBJECT_NAME": "CBERS 4", "OBJECT_ID": "2014-079A", "EPOCH": "2025-12-17T22:51:49.912992", "MEAN_MOTION": 14.35518822, "ECCENTRICITY": 0.00017582, "INCLINATION": 98.3308, "RA_OF_ASC_NODE": 49.7915, "ARG_OF_PERICENTER": 106.6526, "MEAN_ANOMALY": 253.4853, "EPHEMERIS_TYPE": 0, "CLASSIFICATION_TYPE": "U", "NORAD_CAT_ID": 40336, "ELEMENT_SET_NO": 999, "REV_AT_EPOCH": 57795, "BSTAR": -9.387185e-06, "MEAN_MOTION_DOT": -6.9e-07, "MEAN_MOTION_DDOT": 0}, "tle": {"line1": "1 40336U 14079A   25351.95266103 -.00000069  00000+0 -93872-5 0  9995", "line2": "2 40336  98.3308  49.7915 0001758 106.6526 253.4853 14.35518822577953"}}, "geometry": {"type": "Point", "coordinates": [47.701919475940485, 16.55606465588771]}}, {"type": "Feature", "properties": {"norad_id": 40362, "name": "YAOGAN-26", "group": "resource", "lat": -81.68972741562038, "lon": 50.93969719898388, "alt_km": 455.4637105584661, "timestamp": "2025-12-18T08:58:43.048813+00:00", "meta": {"OBJECT_NAME": "YAOGAN-26", "OBJECT_ID": "2014-088A", "EPOCH": "2025-12-17T23:59:24.107712", "MEAN_MOTION": 15.39482459, "ECCENTRICITY": 0.00054531, "INCLINATION": 97.0634, "RA_OF_ASC_NODE": 352.4867, "ARG_OF_PERICENTER": 13.1871, "MEAN_ANOMALY": 346.9517, "EPHEMERIS_TYPE": 0, "CLASSIFICATION_TYPE": "U", "NORAD_CAT_ID": 40362, "ELEMENT_SET_NO": 999, "REV_AT_EPOCH": 60975, "BSTAR": 0.00037118043, "MEAN_MOTION_DOT": 0.00014498, "MEAN_MOTION_DDOT": 0}, "tle": {"line1": "1 40362U 14088A   25351.99958458  .00014498  00000+0  37118-3 0  9997", "line2": "2 40362  97.0634 352.4867 0005453  13.1871 346.9517 15.39482459609751"}}, "geometry": {"type": "Point", "coordinates": [50.93969719898388, -81.68972741562038]}}, {"type": "Feature", "properties": {"norad_id": 40376, "name": "SMAP", "group": "resource", "lat": 62.134988169341234, "lon": -18.6679967754746, "alt_km": 675.5461881689562, "timestamp": "2025-12-18T08:58:43.048823+00:00", "meta": {"OBJECT_NAME": "SMAP", "OBJECT_ID": "2015-003A", "EPOCH": "2025-12-17T21:12:11.832192", "MEAN_MOTION": 14.63351584, "ECCENTRICITY": 0.00012141, "INCLINATION": 98.1288, "RA_OF_ASC_NODE": 356.5332, "ARG_OF_PERICENTER": 91.0615, "MEAN_ANOMALY": 269.0726, "EPHEMERIS_TYPE": 0, "CLASSIFICATION_TYPE": "U", "NORAD_CAT_ID": 40376, "ELEMENT_SET_NO": 999, "REV_AT_EPOCH": 58110, "BSTAR": 0.00010014821, "MEAN_MOTION_DOT": 4.7e-06, "MEAN_MOTION_DDOT": 0}, "tle": {"line1": "1 40376U 15003A   25351.88347028  .00000470  00000+0  10015-3 0  9995", "line2": "2 40376  98.1288 356.5332 0001214  91.0615 269.0726 14.63351584581102"}}, "geometry": {"type": "Point", "coordinates": [-18.6679967754746, 62.134988169341234]}}, {"type": "Feature", "properties": {"norad_id": 40536, "name": "KOMPSAT-3A", "group": "resource", "lat": -50.09498367383661, "lon": -23.683272038082738, "alt_km": 444.289272836485, "timestamp": "2025-12-18T08:58:43.048834+00:00", "meta": {"OBJECT_NAME": "KOMPSAT-3A", "OBJECT_ID": "2015-014A", "EPOCH": "2025-12-17T22:18:40.228128", "MEAN_MOTION": 15.44132071, "ECCENTRICITY": 0.00052469, "INCLINATION": 97.6784, "RA_OF_ASC_NODE": 326.5634, "ARG_OF_PERICENTER": 115.3896, "MEAN_ANOMALY": 244.7895, "EPHEMERIS_TYPE": 0, "CLASSIFICATION_TYPE": "U", "NORAD_CAT_ID": 40536, "ELEMENT_SET_NO": 999, "REV_AT_EPOCH": 59375, "BSTAR": 0.00034593938, "MEAN_MOTION_DOT": 0.00015763, "MEAN_MOTION_DDOT": 0}, "tle": {"line1": "1 40536U 15014A   25351.92963227  .00015763  00000+0  34594-3 0  9994", "line2": "2 40536  97.6784 326.5634 0005246 115.3896 244.7895 15.44132071593756"}}, "geometry": {"type": "Point", "coordinates": [-23.683272038082738, -50.09498367383661]}}, {"type": "Feature", "properties": {"norad_id": 40697, "name": "SENTINEL-2A", "group": "resource", "lat": -7.219977056063293, "lon": 65.92175822608593, "alt_km": 792.9795038373377, "timestamp": "2025-12-18T08:58:43.048844+00:00", "meta": {"OBJECT_NAME": "SENTINEL-2A", "OBJECT_ID": "2015-028A", "EPOCH": "2025-12-18T03:58:39.593856", "MEAN_MOTION": 14.30807476, "ECCENTRICITY": 0.000104, "INCLINATION": 98.5743, "RA_OF_ASC_NODE": 64.6211, "ARG_OF_PERICENTER": 92.7979, "MEAN_ANOMALY": 267.3323, "EPHEMERIS_TYPE": 0, "CLASSIFICATION_TYPE": "U", "NORAD_CAT_ID": 40697, "ELEMENT_SET_NO": 999, "REV_AT_EPOCH": 54784, "BSTAR": 6.5453e-05, "MEAN_MOTION_DOT": 1.28e-06, "MEAN_MOTION_DDOT": 0}, "tle": {"line1": "1 40697U 15028A   25352.16573604  .00000128  00000+0  65453-4 0  9998", "line2": "2 40697  98.5743  64.6211 0001040  92.7979 267.3323 14.30807476547846"}}, "geometry": {"type": "Point", "coordinates": [65.92175822608593, -7.219977056063293]}}]}